OBJECT_NAME,OBJECT_ID,EPOCH,MEAN_MOTION,ECCENTRICITY,INCLINATION,RA_OF_ASC_NODE,ARG_OF_PERICENTER,MEAN_ANOMALY,EPHEMERIS_TYPE,CLASSIFICATION_TYPE,NORAD_CAT_ID,ELEMENT_SET_NO,REV_AT_EPOCH,BSTAR,MEAN_MOTION_DOT,MEAN_MOTION_DDOT
LINGQIAO VIDEO A,2015-057B,2026-06-14T05:54:20.791872,14.77389559,.0015232,97.6614,160.1930,281.0974,78.8525,0,U,40959,999,57497,.91781E-4,.605E-5,0
LINGQIAO VIDEO B,2015-057C,2026-06-14T05:21:03.623040,14.77496854,.001537,97.6580,161.3351,281.0891,78.8591,0,U,40960,999,57501,.14391E-3,.979E-5,0
JILIN-1,2015-057D,2026-06-14T05:42:28.041984,14.78156078,.0015319,97.6508,164.7510,273.6717,86.2743,0,U,40961,999,57517,.1101E-3,.75E-5,0
FOX-1A (AO-85),2015-058D,2026-06-14T01:34:52.870944,14.90956726,.0130258,64.7761,288.6834,57.8004,303.5661,0,U,40967,999,11310,.22792E-3,.2476E-4,0
SINOD-D 1,2015-058E,2026-06-14T00:04:22.086624,14.95888248,.0118842,64.7761,268.8837,54.3509,306.8602,0,U,40968,999,11618,.28236E-3,.347E-4,0
ELEKTRO-L 2,2015-074A,2026-06-14T01:03:32.621184,1.00270718,.0000705,6.6845,70.5612,243.9352,309.2359,0,U,41105,999,3847,0,-.114E-5,0
DAMPE,2015-078A,2026-06-14T03:52:31.267200,15.30778039,.0013833,97.4555,170.6136,86.6847,273.5976,0,U,41173,999,58408,.43471E-4,.1218E-4,0
ORBCOMM FM114,2015-081A,2026-06-13T06:43:33.452256,14.58854678,.00022521,47.0060,20.4759,192.2086,167.8745,0,U,41179,999,55718,.12794477E-3,.433E-5,0
ORBCOMM FM110,2015-081D,2026-06-13T21:14:30.575040,14.58876174,.00026061,47.0032,17.0560,55.8487,304.2646,0,U,41182,999,55714,.1768921E-3,.665E-5,0
ORBCOMM FM112,2015-081F,2026-06-14T01:27:43.252128,14.58900185,.0003554,46.9998,285.0310,204.6631,155.4085,0,U,41184,999,55849,.15667E-3,.57E-5,0
ORBCOMM FM113,2015-081G,2026-06-12T01:13:53.961600,14.58853293,.0001998,47.0017,294.9070,204.7602,155.3188,0,U,41185,999,55818,.10704795E-3,.335E-5,0
ORBCOMM FM108,2015-081J,2026-06-13T09:12:13.186080,14.58866983,.00027346,47.0056,200.1825,209.5581,150.5151,0,U,41187,999,55952,.11596101E-3,.377E-5,0
ORBCOMM FM117,2015-081K,2026-06-13T19:52:53.295168,14.58863203,.00033108,46.9996,196.7126,211.3571,148.7118,0,U,41188,999,55963,.10492082E-3,.325E-5,0
ORBCOMM FM116,2015-081L,2026-06-14T00:20:39.073632,14.58879012,.0000716,47.0030,285.6241,38.4671,321.6265,0,U,41189,999,55847,.16223E-3,.596E-5,0
HORYU-4,2016-012D,2026-06-14T04:23:58.367616,15.93563943,.0004612,30.9846,101.0543,251.9493,108.0665,0,U,41340,999,57033,.11344E-2,.430944E-2,.66472E-4
ZIYUAN 3-02 (ZY 3-02),2016-033A,2026-06-14T03:56:41.210304,15.21456049,.0011268,97.3842,240.9966,301.8734,58.1405,0,U,41556,999,55752,.26411E-3,.5876E-4,0
CARTOSAT-2C,2016-040A,2026-06-14T03:53:57.937632,15.19297476,.0010343,97.4494,225.1817,140.9262,219.2721,0,U,41599,999,55325,.22469E-3,.468E-4,0
LAPAN-A3,2016-040E,2026-06-14T04:31:47.470368,15.33087188,.001123,97.1482,161.4328,35.8255,324.3739,0,U,41603,999,55435,.10564E-3,.3307E-4,0
GAOFEN-3,2016-049A,2026-06-14T05:44:50.828352,14.42215350,.0001333,98.4009,173.0698,98.6633,261.4708,0,U,41727,999,51822,.42268E-4,.96E-6,0
CAS-2T & KS-1Q,2016-066G,2026-06-14T04:38:06.158976,14.44685244,.0342703,98.3820,240.9636,138.5317,224.2432,0,U,41847,999,50436,.23241E-3,.1608E-4,0
YUNHAI-1 01,2016-068A,2026-06-14T05:35:46.808160,14.32703255,.0006289,98.5829,176.2675,50.3074,309.8664,0,U,41857,999,50140,.75102E-4,.16E-5,0
RESOURCESAT-2A,2016-074A,2026-06-14T04:26:35.221632,14.21615856,.000334,98.7532,238.7137,90.1944,269.9616,0,U,41877,999,49387,.12947E-3,.24E-5,0
TANSAT,2016-081A,2026-06-14T05:35:24.460800,14.59949271,.0019748,98.5358,165.4031,321.8589,38.1211,0,U,41898,999,50419,.10159E-3,.437E-5,0
JILIN-1 03,2017-002B,2026-06-14T04:04:21.533088,15.41510758,.0006436,97.1940,172.2966,163.6020,196.5437,0,U,41914,999,52139,.31097E-3,.12973E-3,0
CARTOSAT-2D,2017-008A,2026-06-14T04:40:15.809088,15.19313753,.0003734,97.4113,224.5561,241.5938,118.4921,0,U,41948,999,51712,.20759E-3,.4316E-4,0
